[{"OBJECT_NAME":"STARLINK-36256","OBJECT_ID":"2025-299B","EPOCH":"2026-03-09T17:49:57.137952","MEAN_MOTION":15.34100812,"ECCENTRICITY":0.00015407,"INCLINATION":42.9993,"RA_OF_ASC_NODE":168.7662,"ARG_OF_PERICENTER":312.3927,"MEAN_ANOMALY":47.6797,"EPHEMERIS_TYPE":0,"CLASSIFICATION_TYPE":"U","NORAD_CAT_ID":67103,"ELEMENT_SET_NO":999,"REV_AT_EPOCH":1312,"BSTAR":-0.0091362377,"MEAN_MOTION_DOT":-0.00296455,"MEAN_MOTION_DDOT":0},{"OBJECT_NAME":"KUIPER-00177","OBJECT_ID":"2026-030C","EPOCH":"2026-03-09T22:40:13.687104","MEAN_MOTION":15.35467467,"ECCENTRICITY":0.00021592,"INCLINATION":51.8837,"RA_OF_ASC_NODE":217.7875,"ARG_OF_PERICENTER":172.5497,"MEAN_ANOMALY":187.5522,"EPHEMERIS_TYPE":0,"CLASSIFICATION_TYPE":"U","NORAD_CAT_ID":67766,"ELEMENT_SET_NO":999,"REV_AT_EPOCH":513,"BSTAR":-0.015747205,"MEAN_MOTION_DOT":-0.00515419,"MEAN_MOTION_DDOT":0}]
